IRIDIUM 159             
1 43578U 18061K   25183.10780678 -.00000048  00000+0 -24083-4 0  9993
2 43578  86.3983 202.9687 0002205  96.4260 263.7187 14.34217136363206
IRIDIUM 180             
1 43922U 19002A   25182.89799761  .00000050  00000+0  10911-4 0  9996
2 43922  86.3992 140.0382 0002403  85.6015 274.5455 14.34217791338826
IRIDIUM 176             
1 43923U 19002B   25182.85342894  .00000716  00000+0  10972-3 0  9999
2 43923  86.6116 140.0486 0003139  77.4255 282.7313 14.72249261347705
IRIDIUM 168             
1 43924U 19002C   25182.89165476  .00000053  00000+0  11845-4 0  9998
2 43924  86.3994 140.1082 0002301  85.2863 274.8596 14.34217865338766
IRIDIUM 173             
1 43925U 19002D   25182.87896984  .00000052  00000+0  11576-4 0  9992
2 43925  86.3990 140.0169 0002447  83.6943 276.4532 14.34217936338756
IRIDIUM 169             
1 43926U 19002E   25182.89982633  .00000169  00000+0  48801-4 0  9992
2 43926  86.4251 171.5909 0003306  65.3589 294.7954 14.38609384339867
IRIDIUM 172             
1 43927U 19002F   25182.87262728  .00000061  00000+0  14652-4 0  9995
2 43927  86.3989 140.0262 0002488  90.6270 269.5211 14.34217983338755
IRIDIUM 175             
1 43928U 19002G   25183.18824767  .00000691  00000+0  10566-3 0  9996
2 43928  86.1495  91.5705 0001943  62.4055 297.7359 14.72262046347748
